ORBCOMM FM103           
1 40091U 14040F   25022.35858816  .00002324  00000+0  54066-3 0  9992
2 40091  47.0063 346.2925 0002561 324.4316  35.6398 14.57721605542827
ORBCOMM FM114           
1 41179U 15081A   25022.11118900  .00001656  00000+0  39525-3 0  9993
2 41179  47.0018 256.6019 0001825  37.0957 323.0054 14.57783190483153
ORBCOMM FM119           
1 41180U 15081B   25022.43431349  .00002402  00000+0  55783-3 0  9999
2 41180  46.9983 164.3300 0000856 164.6206 195.4705 14.57695158484453
ORBCOMM FM105           
1 41181U 15081C   25022.47766016  .00001116  00000+0  36181-3 0  9998
2 41181  47.0006 155.0156 0001156   1.3239 358.7644 14.44985548479670
ORBCOMM FM110           
1 41182U 15081D   25022.01763341  .00001968  00000+0  46218-3 0  9994
2 41182  47.0000 256.4063 0001682 194.5016 165.5822 14.57842792483012
ORBCOMM FM118           
1 41183U 15081E   25021.99942549  .00002070  00000+0  48618-3 0  9991
2 41183  47.0031 256.9006 0002528 190.3939 169.6894 14.57665130483111
ORBCOMM FM112           
1 41184U 15081F   25022.41080774  .00002599  00000+0  60073-3 0  9998
2 41184  46.9968 163.6128 0000198 177.3497 182.7389 14.57676522484396
ORBCOMM FM113           
1 41185U 15081G   25022.45605681  .00002823  00000+0  64913-3 0  9990
2 41185  46.9987 163.7012 0000485 160.0002 200.0902 14.57680748484380
