<?xml version="1.0" encoding="UTF-8"?>
<ndm xmlns:xsi="http://www.w3.org/2001/XMLSchema-instance" xsi:noNamespaceSchemaLocation="https://sanaregistry.org/r/ndmxml_unqualified/ndmxml-2.0.0-master-2.0.xsd">
<omm id="CCSDS_OMM_VERS" version="2.0">
<header><CREATION_DATE/><ORIGINATOR/></header><body><segment><metadata><OBJECT_NAME>ORBCOMM FM103</OBJECT_NAME><OBJECT_ID>2014-040F</OBJECT_ID><CENTER_NAME>EARTH</CENTER_NAME><REF_FRAME>TEME</REF_FRAME><TIME_SYSTEM>UTC</TIME_SYSTEM><MEAN_ELEMENT_THEORY>SGP4</MEAN_ELEMENT_THEORY></metadata><data><meanElements><EPOCH>2025-01-22T08:36:22.017024</EPOCH><MEAN_MOTION>14.57721605</MEAN_MOTION><ECCENTRICITY>.0002561</ECCENTRICITY><INCLINATION>47.0063</INCLINATION><RA_OF_ASC_NODE>346.2925</RA_OF_ASC_NODE><ARG_OF_PERICENTER>324.4316</ARG_OF_PERICENTER><MEAN_ANOMALY>35.6398</MEAN_ANOMALY></meanElements><tleParameters><EPHEMERIS_TYPE>0</EPHEMERIS_TYPE><CLASSIFICATION_TYPE>U</CLASSIFICATION_TYPE><NORAD_CAT_ID>40091</NORAD_CAT_ID><ELEMENT_SET_NO>999</ELEMENT_SET_NO><REV_AT_EPOCH>54282</REV_AT_EPOCH><BSTAR>.54066E-3</BSTAR><MEAN_MOTION_DOT>.2324E-4</MEAN_MOTION_DOT><MEAN_MOTION_DDOT>0</MEAN_MOTION_DDOT></tleParameters></data></segment></body></omm>
<omm id="CCSDS_OMM_VERS" version="2.0">
<header><CREATION_DATE/><ORIGINATOR/></header><body><segment><metadata><OBJECT_NAME>ORBCOMM FM114</OBJECT_NAME><OBJECT_ID>2015-081A</OBJECT_ID><CENTER_NAME>EARTH</CENTER_NAME><REF_FRAME>TEME</REF_FRAME><TIME_SYSTEM>UTC</TIME_SYSTEM><MEAN_ELEMENT_THEORY>SGP4</MEAN_ELEMENT_THEORY></metadata><data><meanElements><EPOCH>2025-01-22T02:40:06.729600</EPOCH><MEAN_MOTION>14.57783190</MEAN_MOTION><ECCENTRICITY>.0001825</ECCENTRICITY><INCLINATION>47.0018</INCLINATION><RA_OF_ASC_NODE>256.6019</RA_OF_ASC_NODE><ARG_OF_PERICENTER>37.0957</ARG_OF_PERICENTER><MEAN_ANOMALY>323.0054</MEAN_ANOMALY></meanElements><tleParameters><EPHEMERIS_TYPE>0</EPHEMERIS_TYPE><CLASSIFICATION_TYPE>U</CLASSIFICATION_TYPE><NORAD_CAT_ID>41179</NORAD_CAT_ID><ELEMENT_SET_NO>999</ELEMENT_SET_NO><REV_AT_EPOCH>48315</REV_AT_EPOCH><BSTAR>.39525E-3</BSTAR><MEAN_MOTION_DOT>.1656E-4</MEAN_MOTION_DOT><MEAN_MOTION_DDOT>0</MEAN_MOTION_DDOT></tleParameters></data></segment></body></omm>
<omm id="CCSDS_OMM_VERS" version="2.0">
<header><CREATION_DATE/><ORIGINATOR/></header><body><segment><metadata><OBJECT_NAME>ORBCOMM FM119</OBJECT_NAME><OBJECT_ID>2015-081B</OBJECT_ID><CENTER_NAME>EARTH</CENTER_NAME><REF_FRAME>TEME</REF_FRAME><TIME_SYSTEM>UTC</TIME_SYSTEM><MEAN_ELEMENT_THEORY>SGP4</MEAN_ELEMENT_THEORY></metadata><data><meanElements><EPOCH>2025-01-22T10:25:24.685536</EPOCH><MEAN_MOTION>14.57695158</MEAN_MOTION><ECCENTRICITY>.0000856</ECCENTRICITY><INCLINATION>46.9983</INCLINATION><RA_OF_ASC_NODE>164.3300</RA_OF_ASC_NODE><ARG_OF_PERICENTER>164.6206</ARG_OF_PERICENTER><MEAN_ANOMALY>195.4705</MEAN_ANOMALY></meanElements><tleParameters><EPHEMERIS_TYPE>0</EPHEMERIS_TYPE><CLASSIFICATION_TYPE>U</CLASSIFICATION_TYPE><NORAD_CAT_ID>41180</NORAD_CAT_ID><ELEMENT_SET_NO>999</ELEMENT_SET_NO><REV_AT_EPOCH>48445</REV_AT_EPOCH><BSTAR>.55783E-3</BSTAR><MEAN_MOTION_DOT>.2402E-4</MEAN_MOTION_DOT><MEAN_MOTION_DDOT>0</MEAN_MOTION_DDOT></tleParameters></data></segment></body></omm>
<omm id="CCSDS_OMM_VERS" version="2.0">
<header><CREATION_DATE/><ORIGINATOR/></header><body><segment><metadata><OBJECT_NAME>ORBCOMM FM105</OBJECT_NAME><OBJECT_ID>2015-081C</OBJECT_ID><CENTER_NAME>EARTH</CENTER_NAME><REF_FRAME>TEME</REF_FRAME><TIME_SYSTEM>UTC</TIME_SYSTEM><MEAN_ELEMENT_THEORY>SGP4</MEAN_ELEMENT_THEORY></metadata><data><meanElements><EPOCH>2025-01-22T11:27:49.837824</EPOCH><MEAN_MOTION>14.44985548</MEAN_MOTION><ECCENTRICITY>.0001156</ECCENTRICITY><INCLINATION>47.0006</INCLINATION><RA_OF_ASC_NODE>155.0156</RA_OF_ASC_NODE><ARG_OF_PERICENTER>1.3239</ARG_OF_PERICENTER><MEAN_ANOMALY>358.7644</MEAN_ANOMALY></meanElements><tleParameters><EPHEMERIS_TYPE>0</EPHEMERIS_TYPE><CLASSIFICATION_TYPE>U</CLASSIFICATION_TYPE><NORAD_CAT_ID>41181</NORAD_CAT_ID><ELEMENT_SET_NO>999</ELEMENT_SET_NO><REV_AT_EPOCH>47967</REV_AT_EPOCH><BSTAR>.36181E-3</BSTAR><MEAN_MOTION_DOT>.1116E-4</MEAN_MOTION_DOT><MEAN_MOTION_DDOT>0</MEAN_MOTION_DDOT></tleParameters></data></segment></body></omm>
<omm id="CCSDS_OMM_VERS" version="2.0">
<header><CREATION_DATE/><ORIGINATOR/></header><body><segment><metadata><OBJECT_NAME>ORBCOMM FM110</OBJECT_NAME><OBJECT_ID>2015-081D</OBJECT_ID><CENTER_NAME>EARTH</CENTER_NAME><REF_FRAME>TEME</REF_FRAME><TIME_SYSTEM>UTC</TIME_SYSTEM><MEAN_ELEMENT_THEORY>SGP4</MEAN_ELEMENT_THEORY></metadata><data><meanElements><EPOCH>2025-01-22T00:25:23.526624</EPOCH><MEAN_MOTION>14.57842792</MEAN_MOTION><ECCENTRICITY>.0001682</ECCENTRICITY><INCLINATION>47.0000</INCLINATION><RA_OF_ASC_NODE>256.4063</RA_OF_ASC_NODE><ARG_OF_PERICENTER>194.5016</ARG_OF_PERICENTER><MEAN_ANOMALY>165.5822</MEAN_ANOMALY></meanElements><tleParameters><EPHEMERIS_TYPE>0</EPHEMERIS_TYPE><CLASSIFICATION_TYPE>U</CLASSIFICATION_TYPE><NORAD_CAT_ID>41182</NORAD_CAT_ID><ELEMENT_SET_NO>999</ELEMENT_SET_NO><REV_AT_EPOCH>48301</REV_AT_EPOCH><BSTAR>.46218E-3</BSTAR><MEAN_MOTION_DOT>.1968E-4</MEAN_MOTION_DOT><MEAN_MOTION_DDOT>0</MEAN_MOTION_DDOT></tleParameters></data></segment></body></omm>
<omm id="CCSDS_OMM_VERS" version="2.0">
<header><CREATION_DATE/><ORIGINATOR/></header><body><segment><metadata><OBJECT_NAME>ORBCOMM FM118</OBJECT_NAME><OBJECT_ID>2015-081E</OBJECT_ID><CENTER_NAME>EARTH</CENTER_NAME><REF_FRAME>TEME</REF_FRAME><TIME_SYSTEM>UTC</TIME_SYSTEM><MEAN_ELEMENT_THEORY>SGP4</MEAN_ELEMENT_THEORY></metadata><data><meanElements><EPOCH>2025-01-21T23:59:10.362336</EPOCH><MEAN_MOTION>14.57665130</MEAN_MOTION><ECCENTRICITY>.0002528</ECCENTRICITY><INCLINATION>47.0031</INCLINATION><RA_OF_ASC_NODE>256.9006</RA_OF_ASC_NODE><ARG_OF_PERICENTER>190.3939</ARG_OF_PERICENTER><MEAN_ANOMALY>169.6894</MEAN_ANOMALY></meanElements><tleParameters><EPHEMERIS_TYPE>0</EPHEMERIS_TYPE><CLASSIFICATION_TYPE>U</CLASSIFICATION_TYPE><NORAD_CAT_ID>41183</NORAD_CAT_ID><ELEMENT_SET_NO>999</ELEMENT_SET_NO><REV_AT_EPOCH>48311</REV_AT_EPOCH><BSTAR>.48618E-3</BSTAR><MEAN_MOTION_DOT>.207E-4</MEAN_MOTION_DOT><MEAN_MOTION_DDOT>0</MEAN_MOTION_DDOT></tleParameters></data></segment></body></omm>
<omm id="CCSDS_OMM_VERS" version="2.0">
<header><CREATION_DATE/><ORIGINATOR/></header><body><segment><metadata><OBJECT_NAME>ORBCOMM FM112</OBJECT_NAME><OBJECT_ID>2015-081F</OBJECT_ID><CENTER_NAME>EARTH</CENTER_NAME><REF_FRAME>TEME</REF_FRAME><TIME_SYSTEM>UTC</TIME_SYSTEM><MEAN_ELEMENT_THEORY>SGP4</MEAN_ELEMENT_THEORY></metadata><data><meanElements><EPOCH>2025-01-22T09:51:33.788736</EPOCH><MEAN_MOTION>14.57676522</MEAN_MOTION><ECCENTRICITY>.0000198</ECCENTRICITY><INCLINATION>46.9968</INCLINATION><RA_OF_ASC_NODE>163.6128</RA_OF_ASC_NODE><ARG_OF_PERICENTER>177.3497</ARG_OF_PERICENTER><MEAN_ANOMALY>182.7389</MEAN_ANOMALY></meanElements><tleParameters><EPHEMERIS_TYPE>0</EPHEMERIS_TYPE><CLASSIFICATION_TYPE>U</CLASSIFICATION_TYPE><NORAD_CAT_ID>41184</NORAD_CAT_ID><ELEMENT_SET_NO>999</ELEMENT_SET_NO><REV_AT_EPOCH>48439</REV_AT_EPOCH><BSTAR>.60073E-3</BSTAR><MEAN_MOTION_DOT>.2599E-4</MEAN_MOTION_DOT><MEAN_MOTION_DDOT>0</MEAN_MOTION_DDOT></tleParameters></data></segment></body></omm>
<omm id="CCSDS_OMM_VERS" version="2.0">
<header><CREATION_DATE/><ORIGINATOR/></header><body><segment><metadata><OBJECT_NAME>ORBCOMM FM113</OBJECT_NAME><OBJECT_ID>2015-081G</OBJECT_ID><CENTER_NAME>EARTH</CENTER_NAME><REF_FRAME>TEME</REF_FRAME><TIME_SYSTEM>UTC</TIME_SYSTEM><MEAN_ELEMENT_THEORY>SGP4</MEAN_ELEMENT_THEORY></metadata><data><meanElements><EPOCH>2025-01-22T10:56:43.308384</EPOCH><MEAN_MOTION>14.57680748</MEAN_MOTION><ECCENTRICITY>.0000485</ECCENTRICITY><INCLINATION>46.9987</INCLINATION><RA_OF_ASC_NODE>163.7012</RA_OF_ASC_NODE><ARG_OF_PERICENTER>160.0002</ARG_OF_PERICENTER><MEAN_ANOMALY>200.0902</MEAN_ANOMALY></meanElements><tleParameters><EPHEMERIS_TYPE>0</EPHEMERIS_TYPE><CLASSIFICATION_TYPE>U</CLASSIFICATION_TYPE><NORAD_CAT_ID>41185</NORAD_CAT_ID><ELEMENT_SET_NO>999</ELEMENT_SET_NO><REV_AT_EPOCH>48438</REV_AT_EPOCH><BSTAR>.64913E-3</BSTAR><MEAN_MOTION_DOT>.2823E-4</MEAN_MOTION_DOT><MEAN_MOTION_DDOT>0</MEAN_MOTION_DDOT></tleParameters></data></segment></body></omm>

</ndm>
